0 FENGYUN 1C DEB
1 30282U 99025YT  13281.41930834  .00000285  00000-0  15199-3 0  8540
2 30282 099.0125 341.1250 0218707 021.9212 042.0549 14.09309319346478
0 FENGYUN 1C DEB
1 30282U 99025YT  13282.70753637  .00000234  00000-0  12865-3 0  8559
2 30282 099.0125 342.4149 0218635 018.3034 097.8974 14.09311570346653
0 FENGYUN 1C DEB
1 30282U 99025YT  13284.11558660  .00000245  00000-0  13368-3 0  8567
2 30282 099.0124 343.8248 0218562 014.3458 041.6729 14.09312910346858
0 FENGYUN 1C DEB
1 30282U 99025YT  13285.76016729  .00000186  00000-0  10694-3 0  8578
2 30282 099.0121 345.4717 0218484 009.7270 105.4975 14.09313881347083
0 FENGYUN 1C DEB
1 30282U 99025YT  13287.16216231  .00000224  00000-0  12440-3 0  8589
2 30282 099.0117 346.8758 0218416 005.7826 018.5703 14.09314529347281
0 FENGYUN 1C DEB
1 30282U 99025YT  13288.74089650  .00000327  00000-0  17179-3 0  8596
2 30282 099.0113 348.4568 0218334 001.3423 108.3407 14.09315638347504
0 FENGYUN 1C DEB
1 30282U 99025YT  13290.14438524  .00000338  00000-0  17696-3 0  8609
2 30282 099.0109 349.8623 0218271 357.3947 029.0020 14.09316376347703
0 FENGYUN 1C DEB
1 30282U 99025YT  13291.42967775  .00000394  00000-0  20296-3 0  8619
2 30282 099.0106 351.1492 0218204 353.7752 069.9993 14.09317070347883
0 FENGYUN 1C DEB
1 30282U 99025YT  13292.71821264  .00000412  00000-0  21128-3 0  8621
2 30282 099.0104 352.4393 0218136 350.1499 127.4445 14.09318042348061
0 FENGYUN 1C DEB
1 30282U 99025YT  13294.12053163  .00000406  00000-0  20878-3 0  8638
2 30282 099.0103 353.8433 0218075 346.2025 042.1842 14.09319685348263
0 FENGYUN 1C DEB
1 30282U 99025YT  13295.40468872  .00000384  00000-0  19876-3 0  8649
2 30282 099.0104 355.1289 0218029 342.5846 077.4319 14.09321306348440
